{
  "type": "FeatureCollection",
  "features": [
    {
      "type": "Feature",
      "properties": {
        "norad_id": 41948,
        "name": "CARTOSAT-2D",
        "group": "resource",
        "lat": 70.51761176918401,
        "lon": 29.866042885745305,
        "alt_km": 499.64786146739425,
        "timestamp": "2025-12-20T03:42:47.049589+00:00",
        "meta_object_name": "CARTOSAT-2D",
        "meta_object_id": "2017-008A",
        "meta_epoch": "2025-12-19T21:04:29.537760",
        "meta_mean_motion": 15.19324581,
        "meta_eccentricity": 0.0005286,
        "meta_inclination": 97.4387,
        "meta_ra_of_asc_node": 51.2673,
        "meta_arg_of_pericenter": 139.9201,
        "meta_mean_anomaly": 220.2424,
        "meta_ephemeris_type": 0,
        "meta_classification_type": "U",
        "meta_norad_cat_id": 41948,
        "meta_element_set_no": 999,
        "meta_rev_at_epoch": 49035,
        "meta_bstar": 0.00013653,
        "meta_mean_motion_dot": 2.816e-05,
        "meta_mean_motion_ddot": 0,
        "tle_line1": "1 41948U 17008A   25353.87811965  .00002816  00000+0  13653-3 0  9992",
        "tle_line2": "2 41948  97.4387  51.2673 0005286 139.9201 220.2424 15.19324581490352"
      },
      "geometry": {
        "type": "Point",
        "coordinates": [
          29.866042885745305,
          70.51761176918401
        ]
      }
    },
    {
      "type": "Feature",
      "properties": {
        "norad_id": 42063,
        "name": "SENTINEL-2B",
        "group": "resource",
        "lat": -16.36043512251474,
        "lon": -116.0406600208164,
        "alt_km": 794.0412378376413,
        "timestamp": "2025-12-20T03:42:47.049599+00:00",
        "meta_object_name": "SENTINEL-2B",
        "meta_object_id": "2017-013A",
        "meta_epoch": "2025-12-19T20:05:04.752384",
        "meta_mean_motion": 14.30812537,
        "meta_eccentricity": 0.0001177,
        "meta_inclination": 98.5715,
        "meta_ra_of_asc_node": 66.1837,
        "meta_arg_of_pericenter": 91.7517,
        "meta_mean_anomaly": 268.3801,
        "meta_ephemeris_type": 0,
        "meta_classification_type": "U",
        "meta_norad_cat_id": 42063,
        "meta_element_set_no": 999,
        "meta_rev_at_epoch": 45899,
        "meta_bstar": -2.2582e-05,
        "meta_mean_motion_dot": -1.03e-06,
        "meta_mean_motion_ddot": 0,
        "tle_line1": "1 42063U 17013A   25353.83686056 -.00000103  00000+0 -22582-4 0  9995",
        "tle_line2": "2 42063  98.5715  66.1837 0001177  91.7517 268.3801 14.30812537458996"
      },
      "geometry": {
        "type": "Point",
        "coordinates": [
          -116.0406600208164,
          -16.36043512251474
        ]
      }
    },
    {
      "type": "Feature",
      "properties": {
        "norad_id": 42767,
        "name": "CARTOSAT-2E",
        "group": "resource",
        "lat": -18.685972991832553,
        "lon": 54.18350543463439,
        "alt_km": 514.4749657501397,
        "timestamp": "2025-12-20T03:42:47.049643+00:00",
        "meta_object_name": "CARTOSAT-2E",
        "meta_object_id": "2017-036C",
        "meta_epoch": "2025-12-19T21:28:22.836864",
        "meta_mean_motion": 15.19264161,
        "meta_eccentricity": 0.0002404,
        "meta_inclination": 97.4556,
        "meta_ra_of_asc_node": 51.3884,
        "meta_arg_of_pericenter": 202.6923,
        "meta_mean_anomaly": 157.4206,
        "meta_ephemeris_type": 0,
        "meta_classification_type": "U",
        "meta_norad_cat_id": 42767,
        "meta_element_set_no": 999,
        "meta_rev_at_epoch": 47092,
        "meta_bstar": 0.00013442,
        "meta_mean_motion_dot": 2.766e-05,
        "meta_mean_motion_ddot": 0,
        "tle_line1": "1 42767U 17036C   25353.89470876  .00002766  00000+0  13442-3 0  9997",
        "tle_line2": "2 42767  97.4556  51.3884 0002404 202.6923 157.4206 15.19264161470920"
      },
      "geometry": {
        "type": "Point",
        "coordinates": [
          54.18350543463439,
          -18.685972991832553
        ]
      }
    },
    {
      "type": "Feature",
      "properties": {
        "norad_id": 42920,
        "name": "FORMOSAT-5",
        "group": "resource",
        "lat": 13.097974987966653,
        "lon": 66.39174077415268,
        "alt_km": 725.0984437947227,
        "timestamp": "2025-12-20T03:42:47.049658+00:00",
        "meta_object_name": "FORMOSAT-5",
        "meta_object_id": "2017-049A",
        "meta_epoch": "2025-12-19T19:22:33.125376",
        "meta_mean_motion": 14.50764426,
        "meta_eccentricity": 0.0009843,
        "meta_inclination": 98.2446,
        "meta_ra_of_asc_node": 67.9847,
        "meta_arg_of_pericenter": 277.5488,
        "meta_mean_anomaly": 82.4588,
        "meta_ephemeris_type": 0,
        "meta_classification_type": "U",
        "meta_norad_cat_id": 42920,
        "meta_element_set_no": 999,
        "meta_rev_at_epoch": 44066,
        "meta_bstar": 4.7583e-05,
        "meta_mean_motion_dot": 1.43e-06,
        "meta_mean_motion_ddot": 0,
        "tle_line1": "1 42920U 17049A   25353.80732784  .00000143  00000+0  47583-4 0  9993",
        "tle_line2": "2 42920  98.2446  67.9847 0009843 277.5488  82.4588 14.50764426440662"
      },
      "geometry": {
        "type": "Point",
        "coordinates": [
          66.39174077415268,
          13.097974987966653
        ]
      }
    },
    {
      "type": "Feature",
      "properties": {
        "norad_id": 42969,
        "name": "SENTINEL-5P",
        "group": "resource",
        "lat": -65.55482976055798,
        "lon": -47.45192452713886,
        "alt_km": 834.8455157091348,
        "timestamp": "2025-12-20T03:42:47.049669+00:00",
        "meta_object_name": "SENTINEL-5P",
        "meta_object_id": "2017-064A",
        "meta_epoch": "2025-12-19T14:29:43.433088",
        "meta_mean_motion": 14.1951907,
        "meta_eccentricity": 0.000102,
        "meta_inclination": 98.7794,
        "meta_ra_of_asc_node": 292.1275,
        "meta_arg_of_pericenter": 90.2073,
        "meta_mean_anomaly": 269.922,
        "meta_ephemeris_type": 0,
        "meta_classification_type": "U",
        "meta_norad_cat_id": 42969,
        "meta_element_set_no": 999,
        "meta_rev_at_epoch": 42408,
        "meta_bstar": 3.7143e-05,
        "meta_mean_motion_dot": 3.4e-07,
        "meta_mean_motion_ddot": 0,
        "tle_line1": "1 42969U 17064A   25353.60397492  .00000034  00000+0  37143-4 0  9994",
        "tle_line2": "2 42969  98.7794 292.1275 0001020  90.2073 269.9220 14.19519070424083"
      },
      "geometry": {
        "type": "Point",
        "coordinates": [
          -47.45192452713886,
          -65.55482976055798
        ]
      }
    },
    {
      "type": "Feature",
      "properties": {
        "norad_id": 42987,
        "name": "SKYSAT-C11",
        "group": "resource",
        "lat": -39.697484931990225,
        "lon": -54.37443801439392,
        "alt_km": 430.32793380846397,
        "timestamp": "2025-12-20T03:42:47.049680+00:00",
        "meta_object_name": "SKYSAT-C11",
        "meta_object_id": "2017-068A",
        "meta_epoch": "2025-12-19T19:00:25.726752",
        "meta_mean_motion": 15.47730564,
        "meta_eccentricity": 0.0001151,
        "meta_inclination": 97.4143,
        "meta_ra_of_asc_node": 131.4598,
        "meta_arg_of_pericenter": 100.0017,
        "meta_mean_anomaly": 260.1363,
        "meta_ephemeris_type": 0,
        "meta_classification_type": "U",
        "meta_norad_cat_id": 42987,
        "meta_element_set_no": 999,
        "meta_rev_at_epoch": 45540,
        "meta_bstar": 0.00031864,
        "meta_mean_motion_dot": 0.00016416,
        "meta_mean_motion_ddot": 0,
        "tle_line1": "1 42987U 17068A   25353.79196443  .00016416  00000+0  31864-3 0  9995",
        "tle_line2": "2 42987  97.4143 131.4598 0001151 100.0017 260.1363 15.47730564455409"
      },
      "geometry": {
        "type": "Point",
        "coordinates": [
          -54.37443801439392,
          -39.697484931990225
        ]
      }
    },
    {
      "type": "Feature",
      "properties": {
        "norad_id": 42988,
        "name": "SKYSAT-C10",
        "group": "resource",
        "lat": -67.26229017601553,
        "lon": -73.10697836861806,
        "alt_km": 480.1208614659745,
        "timestamp": "2025-12-20T03:42:47.049691+00:00",
        "meta_object_name": "SKYSAT-C10",
        "meta_object_id": "2017-068B",
        "meta_epoch": "2025-12-18T22:25:10.285248",
        "meta_mean_motion": 15.32190604,
        "meta_eccentricity": 0.00054557,
        "meta_inclination": 97.426,
        "meta_ra_of_asc_node": 123.8024,
        "meta_arg_of_pericenter": 86.4338,
        "meta_mean_anomaly": 273.7528,
        "meta_ephemeris_type": 0,
        "meta_classification_type": "U",
        "meta_norad_cat_id": 42988,
        "meta_element_set_no": 999,
        "meta_rev_at_epoch": 45474,
        "meta_bstar": 0.00029573083,
        "meta_mean_motion_dot": 9.118e-05,
        "meta_mean_motion_ddot": 0,
        "tle_line1": "1 42988U 17068B   25352.93414682  .00009118  00000+0  29573-3 0  9994",
        "tle_line2": "2 42988  97.4260 123.8024 0005455  86.4338 273.7528 15.32190604454741"
      },
      "geometry": {
        "type": "Point",
        "coordinates": [
          -73.10697836861806,
          -67.26229017601553
        ]
      }
    }
  ]
}